*******************************************************************************
Ephemeris / WWW_USER Mon Mar 24 08:50:45 2025 Pasadena, USA      / Horizons    
*******************************************************************************
Target body name: (2018 PU7)                      {source: JPL#13}
Center body name: Earth (399)                     {source: DE441}
Center-site name: Mauna Kea
*******************************************************************************
Start time      : A.D. 2018-Nov-21 03:51:00.0000 UT      
Stop  time      : A.D. 2018-Nov-21 16:24:00.0000 UT      
Step-size       : 1 minutes
*******************************************************************************
Target pole/equ : undefined
Target radii    : undefined                                                    
Center geodetic : 204.5278, 19.8260847, 4.21024   {E-lon(deg),Lat(deg),Alt(km)}
Center cylindric: 204.5278, 6006.35451, 2151.0229 {E-lon(deg),Dxy(km),Dz(km)}
Center pole/equ : ITRF93                          {East-longitude positive}
Center radii    : 6378.137, 6378.137, 6356.752 km {Equator_a, b, pole_c}       
Target primary  : Sun
Vis. interferer : MOON (R_eq= 1737.400) km        {source: DE441}
Rel. light bend : Sun                             {source: DE441}
Rel. lght bnd GM: 1.3271E+11 km^3/s^2                                          
Small-body perts: Yes                             {source: SB441-N16}
Atmos refraction: NO (AIRLESS)
RA format       : HMS
Time format     : CAL 
Calendar mode   : Mixed Julian/Gregorian
RTS-only print  : NO       
EOP file        : eop.250321.p250617                                           
EOP coverage    : DATA-BASED 1962-JAN-20 TO 2025-MAR-21. PREDICTS-> 2025-JUN-16
Units conversion: 1 au= 149597870.700 km, c= 299792.458 km/s, 1 day= 86400.0 s 
Table cut-offs 1: Elevation (-90.0deg=NO ),Airmass (>38.000=NO), Daylight (YES)
Table cut-offs 2: Solar elongation (  0.0,180.0=NO ),Local Hour Angle( 0.0=NO )
Table cut-offs 3: RA/DEC angular rate (     0.0=NO )                           
*******************************************************************************
Initial IAU76/J2000 heliocentric ecliptic osculating elements (au, days, deg.):
  EPOCH=  2458344.5 ! 2018-Aug-14.00 (TDB)         Residual RMS= .35253        
   EC= .5418411610879256   QR= .9908981152950816   TP= 2458306.0483912583      
   OM= 307.3200871504195   W=  329.2166965634538   IN= 6.906215163822786       
  Equivalent ICRF heliocentric cartesian coordinates (au, au/d):
   X= 8.533350742151261E-01  Y=-6.504796009993946E-01  Z=-2.480927258064065E-01
  VX= 1.615085148536055E-02 VY= 9.661045842052620E-03 VZ= 6.810490395822813E-03
Asteroid physical parameters (km, seconds, rotational period in hours):        
   GM= n.a.                RAD= n.a.               ROTPER= n.a.                
   H= 23.4                 G= .150                 B-V= n.a.                   
                           ALBEDO= n.a.            STYP= n.a.                  
*******************************************************************************
 Date__(UT)__HR:MN     R.A._________(ICRF)_________DEC
******************************************************
$$SOE
 2018-Nov-21 14:06  m  23 17 14.333623 +06 40 48.41697
 2018-Nov-21 14:07  m  23 17 14.392531 +06 40 48.55197
 2018-Nov-21 14:08  m  23 17 14.451447 +06 40 48.68699
 2018-Nov-21 14:09  m  23 17 14.510370 +06 40 48.82202
 2018-Nov-21 14:10  m  23 17 14.569300 +06 40 48.95706
 2018-Nov-21 14:11  m  23 17 14.628237 +06 40 49.09212
 2018-Nov-21 14:12  m  23 17 14.687182 +06 40 49.22719
 2018-Nov-21 14:13  m  23 17 14.746134 +06 40 49.36227
 2018-Nov-21 14:14  m  23 17 14.805093 +06 40 49.49736
 2018-Nov-21 14:15  m  23 17 14.864059 +06 40 49.63247
 2018-Nov-21 14:16  m  23 17 14.923033 +06 40 49.76759
 2018-Nov-21 14:17  m  23 17 14.982014 +06 40 49.90273
 2018-Nov-21 14:18  m  23 17 15.041001 +06 40 50.03788
 2018-Nov-21 14:19  m  23 17 15.099996 +06 40 50.17304
 2018-Nov-21 14:20  m  23 17 15.158998 +06 40 50.30822
 2018-Nov-21 14:21  m  23 17 15.218007 +06 40 50.44341
 2018-Nov-21 14:22  m  23 17 15.277022 +06 40 50.57861
 2018-Nov-21 14:23  m  23 17 15.336045 +06 40 50.71383
 2018-Nov-21 14:24  m  23 17 15.395075 +06 40 50.84906
 2018-Nov-21 14:25  m  23 17 15.454112 +06 40 50.98431
 2018-Nov-21 14:26  m  23 17 15.513155 +06 40 51.11956
 2018-Nov-21 14:27  m  23 17 15.572206 +06 40 51.25484
 2018-Nov-21 14:28  m  23 17 15.631263 +06 40 51.39012
 2018-Nov-21 14:29  m  23 17 15.690327 +06 40 51.52543
 2018-Nov-21 14:30  m  23 17 15.749398 +06 40 51.66074
 2018-Nov-21 14:31  m  23 17 15.808475 +06 40 51.79607
 2018-Nov-21 14:32  m  23 17 15.867560 +06 40 51.93141
 2018-Nov-21 14:33  m  23 17 15.926651 +06 40 52.06677
 2018-Nov-21 14:34  m  23 17 15.985748 +06 40 52.20214
 2018-Nov-21 14:35  m  23 17 16.044853 +06 40 52.33753
 2018-Nov-21 14:36  m  23 17 16.103964 +06 40 52.47293
 2018-Nov-21 14:37  m  23 17 16.163081 +06 40 52.60835
 2018-Nov-21 14:38  m  23 17 16.222205 +06 40 52.74378
 2018-Nov-21 14:39  m  23 17 16.281336 +06 40 52.87922
 2018-Nov-21 14:40  m  23 17 16.340473 +06 40 53.01468
 2018-Nov-21 14:41  m  23 17 16.399617 +06 40 53.15016
 2018-Nov-21 14:42  m  23 17 16.458767 +06 40 53.28565
 2018-Nov-21 14:43  m  23 17 16.517924 +06 40 53.42115
 2018-Nov-21 14:44  m  23 17 16.577086 +06 40 53.55667
 2018-Nov-21 14:45  m  23 17 16.636256 +06 40 53.69220
 2018-Nov-21 14:46  m  23 17 16.695431 +06 40 53.82775
 2018-Nov-21 14:47  m  23 17 16.754613 +06 40 53.96331
 2018-Nov-21 14:48  m  23 17 16.813801 +06 40 54.09889
 2018-Nov-21 14:49  m  23 17 16.872996 +06 40 54.23449
 2018-Nov-21 14:50  m  23 17 16.932196 +06 40 54.37009
 2018-Nov-21 14:51  m  23 17 16.991403 +06 40 54.50572
 2018-Nov-21 14:52  m  23 17 17.050616 +06 40 54.64136
 2018-Nov-21 14:53  m  23 17 17.109835 +06 40 54.77701
 2018-Nov-21 14:54  m  23 17 17.169060 +06 40 54.91268
 2018-Nov-21 14:55  m  23 17 17.228292 +06 40 55.04837
 2018-Nov-21 14:56  m  23 17 17.287529 +06 40 55.18407
 2018-Nov-21 14:57  m  23 17 17.346772 +06 40 55.31978
 2018-Nov-21 14:58  m  23 17 17.406022 +06 40 55.45551
 2018-Nov-21 14:59  m  23 17 17.465277 +06 40 55.59126
 2018-Nov-21 15:00  m  23 17 17.524538 +06 40 55.72702
 2018-Nov-21 15:01  m  23 17 17.583805 +06 40 55.86280
 2018-Nov-21 15:02  m  23 17 17.643078 +06 40 55.99859
 2018-Nov-21 15:03  m  23 17 17.702357 +06 40 56.13440
 2018-Nov-21 15:04  m  23 17 17.761641 +06 40 56.27023
 2018-Nov-21 15:05  m  23 17 17.820931 +06 40 56.40607
 2018-Nov-21 15:06  m  23 17 17.880227 +06 40 56.54193
 2018-Nov-21 15:07  m  23 17 17.939529 +06 40 56.67780
 2018-Nov-21 15:08  m  23 17 17.998836 +06 40 56.81369
 2018-Nov-21 15:09  m  23 17 18.058149 +06 40 56.94959
 2018-Nov-21 15:10  m  23 17 18.117468 +06 40 57.08551
 2018-Nov-21 15:11  m  23 17 18.176792 +06 40 57.22145
 2018-Nov-21 15:12  m  23 17 18.236122 +06 40 57.35740
 2018-Nov-21 15:13  m  23 17 18.295457 +06 40 57.49337
 2018-Nov-21 15:14     23 17 18.354798 +06 40 57.62936
 2018-Nov-21 15:15     23 17 18.414144 +06 40 57.76536
 2018-Nov-21 15:16     23 17 18.473496 +06 40 57.90137
 2018-Nov-21 15:17     23 17 18.532852 +06 40 58.03741
 2018-Nov-21 15:18 A   23 17 18.592215 +06 40 58.17346
 2018-Nov-21 15:19 A   23 17 18.651582 +06 40 58.30952
 2018-Nov-21 15:20 A   23 17 18.710955 +06 40 58.44561
 2018-Nov-21 15:21 A   23 17 18.770333 +06 40 58.58171
 2018-Nov-21 15:22 A   23 17 18.829717 +06 40 58.71782
 2018-Nov-21 15:23 A   23 17 18.889105 +06 40 58.85396
 2018-Nov-21 15:24 A   23 17 18.948499 +06 40 58.99010
 2018-Nov-21 15:25 A   23 17 19.007898 +06 40 59.12627
 2018-Nov-21 15:26 A   23 17 19.067301 +06 40 59.26245
 2018-Nov-21 15:27 A   23 17 19.126710 +06 40 59.39865
 2018-Nov-21 15:28 A   23 17 19.186124 +06 40 59.53487
 2018-Nov-21 15:29 A   23 17 19.245543 +06 40 59.67110
 2018-Nov-21 15:30 A   23 17 19.304967 +06 40 59.80735
 2018-Nov-21 15:31 A   23 17 19.364396 +06 40 59.94362
 2018-Nov-21 15:32 A   23 17 19.423829 +06 41 00.07990
 2018-Nov-21 15:33 A   23 17 19.483268 +06 41 00.21620
 2018-Nov-21 15:34 A   23 17 19.542711 +06 41 00.35251
 2018-Nov-21 15:35 A   23 17 19.602159 +06 41 00.48885
 2018-Nov-21 15:36 A   23 17 19.661612 +06 41 00.62520
 2018-Nov-21 15:37 A   23 17 19.721070 +06 41 00.76157
 2018-Nov-21 15:38 A   23 17 19.780532 +06 41 00.89795
 2018-Nov-21 15:39 A   23 17 19.839999 +06 41 01.03435
 2018-Nov-21 15:40 A   23 17 19.899470 +06 41 01.17077
 2018-Nov-21 15:41 A   23 17 19.958946 +06 41 01.30721
 2018-Nov-21 15:42 A   23 17 20.018427 +06 41 01.44366
 2018-Nov-21 15:43 A   23 17 20.077912 +06 41 01.58014
 2018-Nov-21 15:44 N   23 17 20.137402 +06 41 01.71662
 2018-Nov-21 15:45 N   23 17 20.196896 +06 41 01.85313
 2018-Nov-21 15:46 N   23 17 20.256394 +06 41 01.98965
 2018-Nov-21 15:47 N   23 17 20.315897 +06 41 02.12619
 2018-Nov-21 15:48 N   23 17 20.375404 +06 41 02.26275
 2018-Nov-21 15:49 N   23 17 20.434915 +06 41 02.39933
 2018-Nov-21 15:50 N   23 17 20.494431 +06 41 02.53592
 2018-Nov-21 15:51 N   23 17 20.553951 +06 41 02.67253
 2018-Nov-21 15:52 N   23 17 20.613475 +06 41 02.80916
 2018-Nov-21 15:53 N   23 17 20.673003 +06 41 02.94580
 2018-Nov-21 15:54 N   23 17 20.732535 +06 41 03.08247
 2018-Nov-21 15:55 N   23 17 20.792072 +06 41 03.21915
 2018-Nov-21 15:56 N   23 17 20.851612 +06 41 03.35585
 2018-Nov-21 15:57 N   23 17 20.911157 +06 41 03.49256
 2018-Nov-21 15:58 N   23 17 20.970705 +06 41 03.62930
 2018-Nov-21 15:59 N   23 17 21.030257 +06 41 03.76605
 2018-Nov-21 16:00 N   23 17 21.089814 +06 41 03.90282
 2018-Nov-21 16:01 N   23 17 21.149374 +06 41 04.03960
 2018-Nov-21 16:02 N   23 17 21.208938 +06 41 04.17641
 2018-Nov-21 16:03 N   23 17 21.268506 +06 41 04.31323
 2018-Nov-21 16:04 N   23 17 21.328077 +06 41 04.45007
 2018-Nov-21 16:05 N   23 17 21.387652 +06 41 04.58693
 2018-Nov-21 16:06 N   23 17 21.447231 +06 41 04.72381
 2018-Nov-21 16:07 N   23 17 21.506814 +06 41 04.86070
 2018-Nov-21 16:08 N   23 17 21.566400 +06 41 04.99762
